CTC1_L_00489001-01
1 49917U 26010GS  26037.47806713  .00000000  00000+0  00000-0 0  9992
2 49917 100.2000   0.0000 0000000   0.0000   0.0000 13.16009617    10
CTC1_L_00489001-02
1 49918U 25633VB  26037.47806713  .00000000  00000+0  00000-0 0  9993
2 49918 100.2000   0.0000 0000000   0.0000  45.0000 13.16009617    10
CTC1_L_00489001-03
1 49919U 22790FM  26037.47806713  .00000000  00000+0  00000-0 0  9995
2 49919 100.2000   0.0000 0000000   0.0000  90.0000 13.16009617    11
CTC1_L_00489001-04
1 49920U 25134FA  26037.47806713  .00000000  00000+0  00000-0 0  9992
2 49920 100.2000   0.0000 0000000   0.0000 135.0000 13.16009617    13
CTC1_L_00489001-05
1 49921U 25158X   26037.47806713  .00000000  00000+0  00000-0 0  9999
2 49921 100.2000   0.0000 0000000   0.0000 180.0000 13.16009617    14
CTC1_L_00489001-06
1 49922U 23408QO  26037.47806713  .00000000  00000+0  00000-0 0  9996
2 49922 100.2000   0.0000 0000000   0.0000 225.0000 13.16009617    15
CTC1_L_00489001-07
1 49923U 25175YE  26037.47806713  .00000000  00000+0  00000-0 0  9990
2 49923 100.2000   0.0000 0000000   0.0000 270.0000 13.16009617    16
CTC1_L_00489001-08
1 49924U 25865YP  26037.47806713  .00000000  00000+0  00000-0 0  9997
2 49924 100.2000   0.0000 0000000   0.0000 315.0000 13.16009617    17
CTC1_L_00489002-01
1 49925U 24069AH  26037.47806713  .00000000  00000+0  00000-0 0  9993
2 49925 100.2000  12.0000 0000000   0.0000   6.0000 13.16009617    18
CTC1_L_00489002-02
1 49926U 22649HI  26037.47806713  .00000000  00000+0  00000-0 0  9996
2 49926 100.2000  12.0000 0000000   0.0000  51.0000 13.16009617    19
CTC1_L_00489002-03
1 49927U 23602UK  26037.47806713  .00000000  00000+0  00000-0 0  9997
2 49927 100.2000  12.0000 0000000   0.0000  96.0000 13.16009617    19
CTC1_L_00489002-04
1 49928U 24047LP  26037.47806713  .00000000  00000+0  00000-0 0  9992
2 49928 100.2000  12.0000 0000000   0.0000 141.0000 13.16009617    11
CTC1_L_00489002-05
1 49929U 23068JL  26037.47806713  .00000000  00000+0  00000-0 0  9995
2 49929 100.2000  12.0000 0000000   0.0000 186.0000 13.16009617    11
CTC1_L_00489002-06
1 49930U 24198SY  26037.47806713  .00000000  00000+0  00000-0 0  9992
2 49930 100.2000  12.0000 0000000   0.0000 231.0000 13.16009617    14
CTC1_L_00489002-07
1 49931U 22543AY  26037.47806713  .00000000  00000+0  00000-0 0  9995
2 49931 100.2000  12.0000 0000000   0.0000 276.0000 13.16009617    14
CTC1_L_00489002-08
1 49932U 26004GF  26037.47806713  .00000000  00000+0  00000-0 0  9992
2 49932 100.2000  12.0000 0000000   0.0000 321.0000 13.16009617    16
CTC1_L_00489003-01
1 49933U 26903FH  26037.47806713  .00000000  00000+0  00000-0 0  9991
2 49933 100.2000  24.0000 0000000   0.0000  12.0000 13.16009617    17
CTC1_L_00489003-02
1 49934U 22608IL  26037.47806713  .00000000  00000+0  00000-0 0  9990
2 49934 100.2000  24.0000 0000000   0.0000  57.0000 13.16009617    17
CTC1_L_00489003-03
1 49935U 24911GG  26037.47806713  .00000000  00000+0  00000-0 0  9990
2 49935 100.2000  24.0000 0000000   0.0000 102.0000 13.16009617    19
CTC1_L_00489003-04
1 49936U 24256PZ  26037.47806713  .00000000  00000+0  00000-0 0  9993
2 49936 100.2000  24.0000 0000000   0.0000 147.0000 13.16009617    19
CTC1_L_00489003-05
1 49937U 22861VN  26037.47806713  .00000000  00000+0  00000-0 0  9994
2 49937 100.2000  24.0000 0000000   0.0000 192.0000 13.16009617    10
CTC1_L_00489003-06
1 49938U 26769OR  26037.47806713  .00000000  00000+0  00000-0 0  9996
2 49938 100.2000  24.0000 0000000   0.0000 237.0000 13.16009617    11
CTC1_L_00489003-07
1 49939U 24799HX  26037.47806713  .00000000  00000+0  00000-0 0  9998
2 49939 100.2000  24.0000 0000000   0.0000 282.0000 13.16009617    12
CTC1_L_00489003-08
1 49940U 22568JY  26037.47806713  .00000000  00000+0  00000-0 0  9992
2 49940 100.2000  24.0000 0000000   0.0000 327.0000 13.16009617    14
CTC1_L_00489004-01
1 49941U 22448HT  26037.47806713  .00000000  00000+0  00000-0 0  9990
2 49941 100.2000  36.0000 0000000   0.0000  18.0000 13.16009617    15
CTC1_L_00489004-02
1 49942U 24579WW  26037.47806713  .00000000  00000+0  00000-0 0  9998
2 49942 100.2000  36.0000 0000000   0.0000  63.0000 13.16009617    16
CTC1_L_00489004-03
1 49943U 24918GX  26037.47806713  .00000000  00000+0  00000-0 0  9996
2 49943 100.2000  36.0000 0000000   0.0000 108.0000 13.16009617    17
CTC1_L_00489004-04
1 49944U 26266LD  26037.47806713  .00000000  00000+0  00000-0 0  9995
2 49944 100.2000  36.0000 0000000   0.0000 153.0000 13.16009617    18
CTC1_L_00489004-05
1 49945U 22777GU  26037.47806713  .00000000  00000+0  00000-0 0  9999
2 49945 100.2000  36.0000 0000000   0.0000 198.0000 13.16009617    18
CTC1_L_00489004-06
1 49946U 22855FS  26037.47806713  .00000000  00000+0  00000-0 0  9997
2 49946 100.2000  36.0000 0000000   0.0000 243.0000 13.16009617    10
CTC1_L_00489004-07
1 49947U 22848MW  26037.47806713  .00000000  00000+0  00000-0 0  9990
2 49947 100.2000  36.0000 0000000   0.0000 288.0000 13.16009617    10
CTC1_L_00489004-08
1 49948U 23807KV  26037.47806713  .00000000  00000+0  00000-0 0  9997
2 49948 100.2000  36.0000 0000000   0.0000 333.0000 13.16009617    12
CTC1_L_00489005-01
1 49949U 25236LK  26037.47806713  .00000000  00000+0  00000-0 0  9996
2 49949 100.2000  48.0000 0000000   0.0000  24.0000 13.16009617    13
CTC1_L_00489005-02
1 49950U 25026TJ  26037.47806713  .00000000  00000+0  00000-0 0  9995
2 49950 100.2000  48.0000 0000000   0.0000  69.0000 13.16009617    14
CTC1_L_00489005-03
1 49951U 26963VQ  26037.47806713  .00000000  00000+0  00000-0 0  9997
2 49951 100.2000  48.0000 0000000   0.0000 114.0000 13.16009617    16
CTC1_L_00489005-04
1 49952U 23035RB  26037.47806713  .00000000  00000+0  00000-0 0  9995
2 49952 100.2000  48.0000 0000000   0.0000 159.0000 13.16009617    16
CTC1_L_00489005-05
1 49953U 22658GR  26037.47806713  .00000000  00000+0  00000-0 0  9996
2 49953 100.2000  48.0000 0000000   0.0000 204.0000 13.16009617    18
CTC1_L_00489005-06
1 49954U 25946CW  26037.47806713  .00000000  00000+0  00000-0 0  9990
2 49954 100.2000  48.0000 0000000   0.0000 249.0000 13.16009617    18
CTC1_L_00489005-07
1 49955U 24886CV  26037.47806713  .00000000  00000+0  00000-0 0  9993
2 49955 100.2000  48.0000 0000000   0.0000 294.0000 13.16009617    19
CTC1_L_00489005-08
1 49956U 25135WQ  26037.47806713  .00000000  00000+0  00000-0 0  9992
2 49956 100.2000  48.0000 0000000   0.0000 339.0000 13.16009617    10
CTC1_L_00489006-01
1 49957U 23587DP  26037.47806713  .00000000  00000+0  00000-0 0  9992
2 49957 100.2000  60.0000 0000000   0.0000  30.0000 13.16009617    13
CTC1_L_00489006-02
1 49958U 25654IE  26037.47806713  .00000000  00000+0  00000-0 0  9990
2 49958 100.2000  60.0000 0000000   0.0000  75.0000 13.16009617    13
CTC1_L_00489006-03
1 49959U 23345BZ  26037.47806713  .00000000  00000+0  00000-0 0  9996
2 49959 100.2000  60.0000 0000000   0.0000 120.0000 13.16009617    15
CTC1_L_00489006-04
1 49960U 25763XJ  26037.47806713  .00000000  00000+0  00000-0 0  9994
2 49960 100.2000  60.0000 0000000   0.0000 165.0000 13.16009617    16
CTC1_L_00489006-05
1 49961U 25915MQ  26037.47806713  .00000000  00000+0  00000-0 0  9994
2 49961 100.2000  60.0000 0000000   0.0000 210.0000 13.16009617    18
CTC1_L_00489006-06
1 49962U 26372LH  26037.47806713  .00000000  00000+0  00000-0 0  9993
2 49962 100.2000  60.0000 0000000   0.0000 255.0000 13.16009617    18
CTC1_L_00489006-07
1 49963U 24449XU  26037.47806713  .00000000  00000+0  00000-0 0  9997
2 49963 100.2000  60.0000 0000000   0.0000 300.0000 13.16009617    10
CTC1_L_00489006-08
1 49964U 26397FR  26037.47806713  .00000000  00000+0  00000-0 0  9992
2 49964 100.2000  60.0000 0000000   0.0000 345.0000 13.16009617    10
CTC1_L_00489007-01
1 49965U 25270TI  26037.47806713  .00000000  00000+0  00000-0 0  9992
2 49965 100.2000  72.0000 0000000   0.0000  36.0000 13.16009617    11
CTC1_L_00489007-02
1 49966U 26517PH  26037.47806713  .00000000  00000+0  00000-0 0  9998
2 49966 100.2000  72.0000 0000000   0.0000  81.0000 13.16009617    12
CTC1_L_00489007-03
1 49967U 24689JQ  26037.47806713  .00000000  00000+0  00000-0 0  9997
2 49967 100.2000  72.0000 0000000   0.0000 126.0000 13.16009617    13
CTC1_L_00489007-04
1 49968U 23887PH  26037.47806713  .00000000  00000+0  00000-0 0  9997
2 49968 100.2000  72.0000 0000000   0.0000 171.0000 13.16009617    14
CTC1_L_00489007-05
1 49969U 25057AW  26037.47806713  .00000000  00000+0  00000-0 0  9999
2 49969 100.2000  72.0000 0000000   0.0000 216.0000 13.16009617    15
CTC1_L_00489007-06
1 49970U 23924DG  26037.47806713  .00000000  00000+0  00000-0 0  9992
2 49970 100.2000  72.0000 0000000   0.0000 261.0000 13.16009617    17
CTC1_L_00489007-07
1 49971U 24814SM  26037.47806713  .00000000  00000+0  00000-0 0  9992
2 49971 100.2000  72.0000 0000000   0.0000 306.0000 13.16009617    18
CTC1_L_00489007-08
1 49972U 25835X   26037.47806713  .00000000  00000+0  00000-0 0  9997
2 49972 100.2000  72.0000 0000000   0.0000 351.0000 13.16009617    19
CTC1_L_00489008-01
1 49973U 22154WD  26037.47806713  .00000000  00000+0  00000-0 0  9999
2 49973 100.2000  84.0000 0000000   0.0000  42.0000 13.16009617    10
CTC1_L_00489008-02
1 49974U 22736ZF  26037.47806713  .00000000  00000+0  00000-0 0  9996
2 49974 100.2000  84.0000 0000000   0.0000  87.0000 13.16009617    10
CTC1_L_00489008-03
1 49975U 23775GL  26037.47806713  .00000000  00000+0  00000-0 0  9991
2 49975 100.2000  84.0000 0000000   0.0000 132.0000 13.16009617    12
CTC1_L_00489008-04
1 49976U 24699MB  26037.47806713  .00000000  00000+0  00000-0 0  9998
2 49976 100.2000  84.0000 0000000   0.0000 177.0000 13.16009617    12
CTC1_L_00489008-05
1 49977U 26683RH  26037.47806713  .00000000  00000+0  00000-0 0  9994
2 49977 100.2000  84.0000 0000000   0.0000 222.0000 13.16009617    14
CTC1_L_00489008-06
1 49978U 23447MD  26037.47806713  .00000000  00000+0  00000-0 0  9990
2 49978 100.2000  84.0000 0000000   0.0000 267.0000 13.16009617    14
